# 2019 09 30 18 58 52.21 -37.5005 -71.4992 35.00  13 144.00 1.7500 0.0 1
CALL 11.35 1.00 P
MAYA 10.99 1.00 P
COPA  7.71 1.00 P
COP2  8.75 1.00 P
BI02 15.81 1.00 P
BI02 29.06 1.00 S
TOL1 13.14 1.00 P
TOL1 28.46 1.00 S
LONQ 17.99 1.00 P
MANZ 18.47 1.00 P
MANZ 30.95 1.00 S
BI05 23.87 1.00 P
BI05 43.75 1.00 S
# 2019 09 30 19 00 41.56 -38.2700 -73.2202 35.00  4 208.00 0.8400 0.0 2
BI05 25.04 1.00 P
LR03 25.04 1.00 P
COP2 26.72 1.00 P
COPA 25.32 1.00 P
# 2019 09 30 19 09 26.22 -33.7457 -71.3020 35.00  8 332.00 7.2100 0.0 3
BI05 63.68 1.00 P
BI05 75.78 1.00 S
CALL 58.38 1.00 P
COPA 57.86 1.00 P
MAYA 60.98 1.00 P
MAYA 115.12 1.00 S
COP2 59.66 1.00 P
COP2 113.34 1.00 S
# 2019 09 30 19 10 21.81 -37.6242 -72.2202 30.17  7 136.00 5.4000 0.0 4
MANZ 19.95 1.00 P
BI05 19.99 1.00 P
BI05 35.74 1.00 S
BI02 20.44 1.00 P
BI02 36.41 1.00 S
LR03 20.54 1.00 P
LR03 63.36 1.00 S
# 2019 09 30 19 12 06.19 -38.0343 -72.6973 35.00  8 253.00 16.8800 0.0 5
CALL 18.69 1.00 P
MAYA 17.37 1.00 P
MAYA 10.29 1.00 S
COP2 17.25 1.00 P
COPA 17.29 1.00 P
COPA 77.71 1.00 S
BI05 20.33 1.00 P
BI05 39.44 1.00 S
# 2019 09 30 19 13 41.88 -39.7012 -73.3702  0.02  7 319.00 21.7900 0.0 6
MAYA 29.92 1.00 P
CALL 30.76 1.00 P
COP2 28.88 1.00 P
COP2 92.44 1.00 S
COPA 27.40 1.00 P
COPA 116.06 1.00 S
BI05 32.45 1.00 P
# 2019 09 30 19 15 57.13 -37.9567 -72.8772 35.00  7 182.00 2.4700 0.0 7
CALL 23.31 1.00 P
MAYA 22.07 1.00 P
BI05 22.17 1.00 P
BI05 35.16 1.00 S
COP2 21.19 1.00 P
COPA 19.19 1.00 P
LR03 25.79 1.00 P
# 2019 09 30 19 20 20.15 -38.5095 -66.5227  0.07  5 358.00 0.4100 0.0 8
COPA 59.65 1.00 P
COP2 60.29 1.00 P
MAYA 61.21 1.00 P
CALL 63.45 1.00 P
CALL 108.55 1.00 S
